SL-3 R/B                
1 13403U 82079B   26066.10754916  .00008972  00000+0  35801-3 0  9995
2 13403  81.1479 196.1250 0024959 173.3011 186.8562 15.24749804377302
SL-14 R/B               
1 13553U 82092B   26065.27797814  .00000654  00000+0  70758-4 0  9997
2 13553  82.5700 144.5903 0019204 315.6120 104.2493 14.86662436328429
SL-3 R/B                
1 13819U 83010B   26065.91369485  .00019687  00000+0  39689-3 0  9996
2 13819  81.1067   5.6498 0018217  60.1010 300.2041 15.46230407357519
SL-3 R/B                
1 14208U 83075B   26066.15032832  .00013373  00000+0  35361-3 0  9999
2 14208  97.6142  70.6312 0019916 235.6705 124.2655 15.38339493329769
COSMOS 1536             
1 14699U 84013A   26066.15889907  .00006482  00000+0  26753-3 0  9997
2 14699  82.5427 110.3662 0012627 293.5723  66.4187 15.23783060272230
SL-14 R/B               
1 14820U 84027B   26065.99964825  .00000594  00000+0  65151-4 0  9996
2 14820  82.5383 247.5363 0017581 347.0800  12.9963 14.85972773247231
SL-8 R/B                
1 15483U 85006B   26066.02417822  .00000211  00000+0  78809-4 0  9995
2 15483  74.0432 266.0538 0018557 184.4732 289.6073 14.37780032153647
SL-12 R/B(2)            
1 15772U 85042D   26066.16299914  .00000040  00000+0  39497-4 0  9991
2 15772  71.1062  93.0674 0033385 132.3034 295.3190 14.21981684114030
SL-14 R/B               
1 15945U 85069B   26065.98524660  .00000685  00000+0  74619-4 0  9990
2 15945  82.5280  27.4756 0018233 196.8188 163.2426 14.86429044172433
SL-16 R/B               
1 16182U 85097B   26065.38731164 -.00000123  00000+0 -37693-4 0  9998
2 16182  71.0034 147.5065 0009967 263.7562 167.3141 14.16599577 86769
SL-14 R/B               
1 16496U 86006B   26066.03031051  .00000741  00000+0  76284-4 0  9991
2 16496  82.5234 262.2409 0075095 281.8007  77.4793 14.86810288148814
COSMOS 1743             
1 16719U 86034A   26066.07370789  .00039159  00000+0  51438-3 0  9996
2 16719  82.5295  76.5761 0001816 315.7122  44.3988 15.58334046179840
